{
  "type": "FeatureCollection",
  "features": [
    {
      "type": "Feature",
      "properties": {
        "norad_id": 43260,
        "name": "GAOFEN-1 03",
        "group": "resource",
        "lat": -15.210067931612533,
        "lon": 50.7826676234562,
        "alt_km": 644.3859252294442,
        "timestamp": "2025-12-16T21:38:56.827361+00:00",
        "meta_object_name": "GAOFEN-1 03",
        "meta_object_id": "2018-031B",
        "meta_epoch": "2025-12-16T08:42:23.278752",
        "meta_mean_motion": 14.76444522,
        "meta_eccentricity": 0.00018054,
        "meta_inclination": 98.0795,
        "meta_ra_of_asc_node": 48.0299,
        "meta_arg_of_pericenter": 304.3008,
        "meta_mean_anomaly": 55.8031,
        "meta_ephemeris_type": 0,
        "meta_classification_type": "U",
        "meta_norad_cat_id": 43260,
        "meta_element_set_no": 999,
        "meta_rev_at_epoch": 41571,
        "meta_bstar": 0.00013744265,
        "meta_mean_motion_dot": 9.04e-06,
        "meta_mean_motion_ddot": 0,
        "tle_line1": "1 43260U 18031B   25350.36276943  .00000904  00000+0  13744-3 0  9997",
        "tle_line2": "2 43260  98.0795  48.0299 0001805 304.3008  55.8031 14.76444522415718"
      },
      "geometry": {
        "type": "Point",
        "coordinates": [
          50.7826676234562,
          -15.210067931612533
        ]
      }
    },
    {
      "type": "Feature",
      "properties": {
        "norad_id": 43262,
        "name": "GAOFEN-1 04",
        "group": "resource",
        "lat": 64.39140559005433,
        "lon": -114.01812856399668,
        "alt_km": 633.874860381703,
        "timestamp": "2025-12-16T21:38:56.827371+00:00",
        "meta_object_name": "GAOFEN-1 04",
        "meta_object_id": "2018-031D",
        "meta_epoch": "2025-12-16T08:07:16.458816",
        "meta_mean_motion": 14.76459657,
        "meta_eccentricity": 9.135e-05,
        "meta_inclination": 98.0808,
        "meta_ra_of_asc_node": 48.1754,
        "meta_arg_of_pericenter": 60.3028,
        "meta_mean_anomaly": 299.8272,
        "meta_ephemeris_type": 0,
        "meta_classification_type": "U",
        "meta_norad_cat_id": 43262,
        "meta_element_set_no": 999,
        "meta_rev_at_epoch": 41570,
        "meta_bstar": 0.0001688253,
        "meta_mean_motion_dot": 1.123e-05,
        "meta_mean_motion_ddot": 0,
        "tle_line1": "1 43262U 18031D   25350.33838494  .00001123  00000+0  16883-3 0  9992",
        "tle_line2": "2 43262  98.0808  48.1754 0000913  60.3028 299.8272 14.76459657415703"
      },
      "geometry": {
        "type": "Point",
        "coordinates": [
          -114.01812856399668,
          64.39140559005433
        ]
      }
    },
    {
      "type": "Feature",
      "properties": {
        "norad_id": 43437,
        "name": "SENTINEL-3B",
        "group": "resource",
        "lat": -74.57163183000664,
        "lon": -157.34388601358927,
        "alt_km": 811.0665726617653,
        "timestamp": "2025-12-16T21:38:56.827381+00:00",
        "meta_object_name": "SENTINEL-3B",
        "meta_object_id": "2018-039A",
        "meta_epoch": "2025-12-16T03:36:59.074272",
        "meta_mean_motion": 14.26735249,
        "meta_eccentricity": 0.00016318,
        "meta_inclination": 98.6265,
        "meta_ra_of_asc_node": 55.2871,
        "meta_arg_of_pericenter": 98.4488,
        "meta_mean_anomaly": 261.6877,
        "meta_ephemeris_type": 0,
        "meta_classification_type": "U",
        "meta_norad_cat_id": 43437,
        "meta_element_set_no": 999,
        "meta_rev_at_epoch": 39802,
        "meta_bstar": 6.8021928e-05,
        "meta_mean_motion_dot": 1.21e-06,
        "meta_mean_motion_ddot": 0,
        "tle_line1": "1 43437U 18039A   25350.15068373  .00000121  00000+0  68022-4 0  9995",
        "tle_line2": "2 43437  98.6265  55.2871 0001631  98.4488 261.6877 14.26735249398021"
      },
      "geometry": {
        "type": "Point",
        "coordinates": [
          -157.34388601358927,
          -74.57163183000664
        ]
      }
    },
    {
      "type": "Feature",
      "properties": {
        "norad_id": 43461,
        "name": "GAOFEN-5 01",
        "group": "resource",
        "lat": 29.65963434395974,
        "lon": -50.904157863448596,
        "alt_km": 690.1557510441571,
        "timestamp": "2025-12-16T21:38:56.827392+00:00",
        "meta_object_name": "GAOFEN-5 01",
        "meta_object_id": "2018-043A",
        "meta_epoch": "2025-12-16T08:21:26.673696",
        "meta_mean_motion": 14.60413815,
        "meta_eccentricity": 7.152e-05,
        "meta_inclination": 98.4329,
        "meta_ra_of_asc_node": 313.3785,
        "meta_arg_of_pericenter": 324.6034,
        "meta_mean_anomaly": 35.5118,
        "meta_ephemeris_type": 0,
        "meta_classification_type": "U",
        "meta_norad_cat_id": 43461,
        "meta_element_set_no": 999,
        "meta_rev_at_epoch": 40500,
        "meta_bstar": 9.8778628e-05,
        "meta_mean_motion_dot": 4.29e-06,
        "meta_mean_motion_ddot": 0,
        "tle_line1": "1 43461U 18043A   25350.34822539  .00000429  00000+0  98779-4 0  9993",
        "tle_line2": "2 43461  98.4329 313.3785 0000715 324.6034  35.5118 14.60413815405005"
      },
      "geometry": {
        "type": "Point",
        "coordinates": [
          -50.904157863448596,
          29.65963434395974
        ]
      }
    },
    {
      "type": "Feature",
      "properties": {
        "norad_id": 43484,
        "name": "GAOFEN-6",
        "group": "resource",
        "lat": -81.65900478885476,
        "lon": 165.74931120537443,
        "alt_km": 654.9507379257393,
        "timestamp": "2025-12-16T21:38:56.827402+00:00",
        "meta_object_name": "GAOFEN-6",
        "meta_object_id": "2018-048A",
        "meta_epoch": "2025-12-16T09:03:31.458816",
        "meta_mean_motion": 14.76574288,
        "meta_eccentricity": 0.00130623,
        "meta_inclination": 97.8032,
        "meta_ra_of_asc_node": 54.5221,
        "meta_arg_of_pericenter": 52.9848,
        "meta_mean_anomaly": 307.2556,
        "meta_ephemeris_type": 0,
        "meta_classification_type": "U",
        "meta_norad_cat_id": 43484,
        "meta_element_set_no": 999,
        "meta_rev_at_epoch": 40641,
        "meta_bstar": 0.00011157806,
        "meta_mean_motion_dot": 7.3e-06,
        "meta_mean_motion_ddot": 0,
        "tle_line1": "1 43484U 18048A   25350.37744744  .00000730  00000+0  11158-3 0  9997",
        "tle_line2": "2 43484  97.8032  54.5221 0013062  52.9848 307.2556 14.76574288406416"
      },
      "geometry": {
        "type": "Point",
        "coordinates": [
          165.74931120537443,
          -81.65900478885476
        ]
      }
    },
    {
      "type": "Feature",
      "properties": {
        "norad_id": 43585,
        "name": "GAOFEN-11 01",
        "group": "resource",
        "lat": 78.86138226286009,
        "lon": 14.148975180520742,
        "alt_km": 413.7227151785328,
        "timestamp": "2025-12-16T21:38:56.827412+00:00",
        "meta_object_name": "GAOFEN-11 01",
        "meta_object_id": "2018-063A",
        "meta_epoch": "2025-12-16T08:53:53.716704",
        "meta_mean_motion": 15.49329858,
        "meta_eccentricity": 0.00041332,
        "meta_inclination": 97.1563,
        "meta_ra_of_asc_node": 53.2751,
        "meta_arg_of_pericenter": 294.7113,
        "meta_mean_anomaly": 65.3708,
        "meta_ephemeris_type": 0,
        "meta_classification_type": "U",
        "meta_norad_cat_id": 43585,
        "meta_element_set_no": 999,
        "meta_rev_at_epoch": 41198,
        "meta_bstar": 0.00028356309,
        "meta_mean_motion_dot": 0.00015444,
        "meta_mean_motion_ddot": 0,
        "tle_line1": "1 43585U 18063A   25350.37076061  .00015444  00000+0  28356-3 0  9992",
        "tle_line2": "2 43585  97.1563  53.2751 0004133 294.7113  65.3708 15.49329858411985"
      },
      "geometry": {
        "type": "Point",
        "coordinates": [
          14.148975180520742,
          78.86138226286009
        ]
      }
    },
    {
      "type": "Feature",
      "properties": {
        "norad_id": 43613,
        "name": "ICESAT-2",
        "group": "resource",
        "lat": -42.38710380482372,
        "lon": 60.02789679648221,
        "alt_km": 487.93940314520023,
        "timestamp": "2025-12-16T21:38:56.827422+00:00",
        "meta_object_name": "ICESAT-2",
        "meta_object_id": "2018-070A",
        "meta_epoch": "2025-12-16T06:32:08.688192",
        "meta_mean_motion": 15.2824701,
        "meta_eccentricity": 0.00025096,
        "meta_inclination": 92.0052,
        "meta_ra_of_asc_node": 241.6905,
        "meta_arg_of_pericenter": 130.0477,
        "meta_mean_anomaly": 230.0993,
        "meta_ephemeris_type": 0,
        "meta_classification_type": "U",
        "meta_norad_cat_id": 43613,
        "meta_element_set_no": 999,
        "meta_rev_at_epoch": 40452,
        "meta_bstar": 0.00040166304,
        "meta_mean_motion_dot": 0.00011053,
        "meta_mean_motion_ddot": 0,
        "tle_line1": "1 43613U 18070A   25350.27232278  .00011053  00000+0  40166-3 0  9990",
        "tle_line2": "2 43613  92.0052 241.6905 0002509 130.0477 230.0993 15.28247010404523"
      },
      "geometry": {
        "type": "Point",
        "coordinates": [
          60.02789679648221,
          -42.38710380482372
        ]
      }
    }
  ]
}